[
    {
        "CCSDS_OMM_VERS": "3.0",
        "COMMENT": "GENERATED VIA SPACE-TRACK.ORG API",
        "CREATION_DATE": "2025-05-03T17:28:03",
        "ORIGINATOR": "18 SPCS",
        "OBJECT_NAME": "COSMOS 2485 (GLONASS)",
        "OBJECT_ID": "2013-019A",
        "CENTER_NAME": "EARTH",
        "REF_FRAME": "TEME",
        "TIME_SYSTEM": "UTC",
        "MEAN_ELEMENT_THEORY": "SGP4",
        "EPOCH": "2025-05-03T05:57:37.859904",
        "MEAN_MOTION": "2.13104492",
        "ECCENTRICITY": "0.00241490",
        "INCLINATION": "65.1966",
        "RA_OF_ASC_NODE": "87.3852",
        "ARG_OF_PERICENTER": "237.8625",
        "MEAN_ANOMALY": "121.8804",
        "EPHEMERIS_TYPE": "0",
        "CLASSIFICATION_TYPE": "U",
        "NORAD_CAT_ID": "39155",
        "ELEMENT_SET_NO": "999",
        "REV_AT_EPOCH": "9354",
        "BSTAR": "0.00000000000000",
        "MEAN_MOTION_DOT": "0.00000028",
        "MEAN_MOTION_DDOT": "0.0000000000000",
        "SEMIMAJOR_AXIS": "25507.826",
        "PERIOD": "675.725",
        "APOAPSIS": "19191.289",
        "PERIAPSIS": "19068.092",
        "OBJECT_TYPE": "PAYLOAD",
        "RCS_SIZE": "LARGE",
        "COUNTRY_CODE": "CIS",
        "LAUNCH_DATE": "2013-04-26",
        "SITE": "PKMTR",
        "DECAY_DATE": null,
        "FILE": "4717971",
        "GP_ID": "286759681",
        "TLE_LINE0": "0 COSMOS 2485 (GLONASS)",
        "TLE_LINE1": "1 39155U 13019A   25123.24835486  .00000028  00000-0  00000-0 0  9990",
        "TLE_LINE2": "2 39155  65.1966  87.3852 0024149 237.8625 121.8804  2.13104492 93545"
    }
]